ONEWEB-0281             
1 48999U 21060AJ  24027.53320581 -.00000139  00000+0 -39843-3 0  9994
2 48999  87.9038  42.2433 0001739  96.9108 263.2220 13.16597072124934
ONEWEB-0282             
1 49000U 21060AK  24027.56330561  .00000161  00000+0  38690-3 0  9992
2 49000  87.9038  42.2544 0002198  86.2531 273.8851 13.16593171124914
ONEWEB-0283             
1 49001U 21060AL  24027.55223718  .00000072  00000+0  15573-3 0  9993
2 49001  87.9036  42.2641 0002198  97.5887 262.5494 13.16592529124925
ONEWEB-0284             
1 49002U 21060AM  24027.54587435  .00000036  00000+0  61403-4 0  9996
2 49002  87.9030  42.2577 0002070  86.0880 274.0488 13.16596424124900
ONEWEB-0285             
1 49075U 21075A   24027.44170250  .00000518  00000+0  14036-2 0  9997
2 49075  87.9031 164.1068 0001555 100.0489 260.0815 13.12444780120862
ONEWEB-0286             
1 49076U 21075B   24027.41295680 -.00000299  00000+0 -86663-3 0  9994
2 49076  87.9030 164.1193 0001126 109.6827 250.4423 13.12445057120211
ONEWEB-0287             
1 49077U 21075C   24027.79963771  .00000049  00000+0  91968-4 0  9995
2 49077  87.9227 179.1457 0001173  85.2521 274.8745 13.17648539119840
ONEWEB-0288             
1 49078U 21075D   24027.39708541 -.00000305  00000+0 -88321-3 0  9999
2 49078  87.9024 164.1262 0001396 100.9295 259.1991 13.12443624120837
